G28 Z
G28 X Y
HOME_ACTUATOR
ACTUATOR_MOVE POS=31.0
G0 F6000 Z5
G0 F6000 X0 Y0 Z5
G0 F6000 X0 Y175 Z5
M400 
ACTUATOR_MOVE POS=25.0
G4 P1000
G0 F6000 Z50
M400 
ACTUATOR_MOVE POS=23.329
G4 P1000
G0 F6000 Z5
ACTUATOR_MOVE POS=22.329
M400 
G0 F6000 X0 Y223 Z5
G0 F6000 X186 Y223 Z5
G0 F6000 Z20
M400 
ACTUATOR_MOVE POS=31.0
G4 P1000
G0 F1500 X189.2
G0 F1500 Z16.0
G0 F1500 X186.0
G0 F1500 Z5.0
M400 
G0 F6000 X0 Y223 Z5.0
G0 F6000 X0 Y175 Z5.0
M400 
ACTUATOR_MOVE POS=25.0
G4 P1000
G0 F6000 Z50.0
M400 
ACTUATOR_MOVE POS=23.329
G4 P1000
G0 F6000 Z5.0
ACTUATOR_MOVE POS=22.329
M400 
G0 F6000 X0 Y223 Z5.0
G0 F6000 X174 Y223 Z5.0
G0 F6000 Z20.0
M400 
ACTUATOR_MOVE POS=31.0
G4 P1000
G0 F1500 X177.2
G0 F1500 Z16.0
G0 F1500 X174.0
G0 F1500 Z5.0
M400 
G0 F6000 X0 Y223 Z5.0
G0 F6000 X0 Y175 Z5.0
M400 
ACTUATOR_MOVE POS=25.0
G4 P1000
G0 F6000 Z50.0
M400 
ACTUATOR_MOVE POS=23.329
G4 P1000
G0 F6000 Z5.0
ACTUATOR_MOVE POS=22.329
M400 
G0 F6000 X0 Y223 Z5.0
G0 F6000 X162 Y223 Z5.0
G0 F6000 Z20.0
M400 
ACTUATOR_MOVE POS=31.0
G4 P1000
G0 F1500 X165.2
G0 F1500 Z16.0
G0 F1500 X162.0
G0 F1500 Z5.0
M400 
G0 F6000 X0 Y223 Z5.0
G0 F6000 X0 Y175 Z5.0
M400 
ACTUATOR_MOVE POS=25.0
G4 P1000
G0 F6000 Z50.0
M400 
ACTUATOR_MOVE POS=23.329
G4 P1000
G0 F6000 Z5.0
ACTUATOR_MOVE POS=22.329
M400 
G0 F6000 X0 Y223 Z5.0
G0 F6000 X150 Y223 Z5.0
G0 F6000 Z20.0
M400 
ACTUATOR_MOVE POS=31.0
G4 P1000
G0 F1500 X153.2
G0 F1500 Z16.0
G0 F1500 X150.0
G0 F1500 Z5.0
M400 
G0 F6000 X0 Y223 Z5.0
G0 F6000 X0 Y175 Z5.0
M400 
ACTUATOR_MOVE POS=25.0
G4 P1000
G0 F6000 Z50.0
M400 
ACTUATOR_MOVE POS=23.329
G4 P1000
G0 F6000 Z5.0
ACTUATOR_MOVE POS=22.329
M400 
G0 F6000 X0 Y223 Z5.0
G0 F6000 X138 Y223 Z5.0
G0 F6000 Z20.0
M400 
ACTUATOR_MOVE POS=31.0
G4 P1000
G0 F1500 X141.2
G0 F1500 Z16.0
G0 F1500 X138.0
G0 F1500 Z5.0
M400 
G0 F6000 X0 Y223 Z5.0
G0 F6000 X0 Y175 Z5.0
M400 
ACTUATOR_MOVE POS=25.0
G4 P1000
G0 F6000 Z50.0
M400 
ACTUATOR_MOVE POS=16.98
G4 P1000
G0 F6000 Z5.0
ACTUATOR_MOVE POS=15.98
M400 
G0 F6000 X0 Y205 Z5.0
G0 F6000 X186 Y205 Z5.0
G0 F6000 Z20.0
M400 
ACTUATOR_MOVE POS=31.0
G4 P1000
G0 F1500 X189.2
G0 F1500 Z16.0
G0 F1500 X186.0
G0 F1500 Z5.0
M400 
G0 F6000 X0 Y205 Z5.0
G0 F6000 X0 Y175 Z5.0
M400 
ACTUATOR_MOVE POS=25.0
G4 P1000
G0 F6000 Z50.0
M400 
ACTUATOR_MOVE POS=16.98
G4 P1000
G0 F6000 Z5.0
ACTUATOR_MOVE POS=15.98
M400 
G0 F6000 X0 Y205 Z5.0
G0 F6000 X174 Y205 Z5.0
G0 F6000 Z20.0
M400 
ACTUATOR_MOVE POS=31.0
G4 P1000
G0 F1500 X177.2
G0 F1500 Z16.0
G0 F1500 X174.0
G0 F1500 Z5.0
M400 
G0 F6000 X0 Y205 Z5.0
G0 F6000 X0 Y175 Z5.0
M400 
ACTUATOR_MOVE POS=25.0
G4 P1000
G0 F6000 Z50.0
M400 
ACTUATOR_MOVE POS=16.98
G4 P1000
G0 F6000 Z5.0
ACTUATOR_MOVE POS=15.98
M400 
G0 F6000 X0 Y205 Z5.0
G0 F6000 X162 Y205 Z5.0
G0 F6000 Z20.0
M400 
ACTUATOR_MOVE POS=31.0
G4 P1000
G0 F1500 X165.2
G0 F1500 Z16.0
G0 F1500 X162.0
G0 F1500 Z5.0
M400 
G0 F6000 X0 Y205 Z5.0
G0 F6000 X0 Y175 Z5.0
M400 
ACTUATOR_MOVE POS=25.0
G4 P1000
G0 F6000 Z50.0
M400 
ACTUATOR_MOVE POS=16.98
G4 P1000
G0 F6000 Z5.0
ACTUATOR_MOVE POS=15.98
M400 
G0 F6000 X0 Y205 Z5.0
G0 F6000 X150 Y205 Z5.0
G0 F6000 Z20.0
M400 
ACTUATOR_MOVE POS=31.0
G4 P1000
G0 F1500 X153.2
G0 F1500 Z16.0
G0 F1500 X150.0
G0 F1500 Z5.0
M400 
G0 F6000 X0 Y205 Z5.0
G0 F6000 X0 Y175 Z5.0
M400 
ACTUATOR_MOVE POS=25.0
G4 P1000
G0 F6000 Z50.0
M400 
ACTUATOR_MOVE POS=16.98
G4 P1000
G0 F6000 Z5.0
ACTUATOR_MOVE POS=15.98
M400 
G0 F6000 X0 Y205 Z5.0
G0 F6000 X138 Y205 Z5.0
G0 F6000 Z20.0
M400 
ACTUATOR_MOVE POS=31.0
G4 P1000
G0 F1500 X141.2
G0 F1500 Z16.0
G0 F1500 X138.0
G0 F1500 Z5.0
M400 
G0 F6000 X0 Y205 Z5.0
G0 F6000 X0 Y175 Z5.0
M400 
ACTUATOR_MOVE POS=25.0
G4 P1000
G0 F6000 Z50.0
M400 
ACTUATOR_MOVE POS=13.012
G4 P1000
G0 F6000 Z5.0
ACTUATOR_MOVE POS=12.012
M400 
G0 F6000 X0 Y187 Z5.0
G0 F6000 X186 Y187 Z5.0
G0 F6000 Z20.0
M400 
ACTUATOR_MOVE POS=31.0
G4 P1000
G0 F1500 X189.2
G0 F1500 Z16.0
G0 F1500 X186.0
G0 F1500 Z5.0
M400 
G0 F6000 X0 Y187 Z5.0
G0 F6000 X0 Y175 Z5.0
M400 
ACTUATOR_MOVE POS=25.0
G4 P1000
G0 F6000 Z50.0
M400 
ACTUATOR_MOVE POS=13.012
G4 P1000
G0 F6000 Z5.0
ACTUATOR_MOVE POS=12.012
M400 
G0 F6000 X0 Y187 Z5.0
G0 F6000 X174 Y187 Z5.0
G0 F6000 Z20.0
M400 
ACTUATOR_MOVE POS=31.0
G4 P1000
G0 F1500 X177.2
G0 F1500 Z16.0
G0 F1500 X174.0
G0 F1500 Z5.0
M400 
G0 F6000 X0 Y187 Z5.0
G0 F6000 X0 Y175 Z5.0
M400 
ACTUATOR_MOVE POS=25.0
G4 P1000
G0 F6000 Z50.0
M400 
ACTUATOR_MOVE POS=13.012
G4 P1000
G0 F6000 Z5.0
ACTUATOR_MOVE POS=12.012
M400 
G0 F6000 X0 Y187 Z5.0
G0 F6000 X162 Y187 Z5.0
G0 F6000 Z20.0
M400 
ACTUATOR_MOVE POS=31.0
G4 P1000
G0 F1500 X165.2
G0 F1500 Z16.0
G0 F1500 X162.0
G0 F1500 Z5.0
M400 
G0 F6000 X0 Y187 Z5.0
G0 F6000 X0 Y175 Z5.0
M400 
ACTUATOR_MOVE POS=25.0
G4 P1000
G0 F6000 Z50.0
M400 
ACTUATOR_MOVE POS=13.012
G4 P1000
G0 F6000 Z5.0
ACTUATOR_MOVE POS=12.012
M400 
G0 F6000 X0 Y187 Z5.0
G0 F6000 X150 Y187 Z5.0
G0 F6000 Z20.0
M400 
ACTUATOR_MOVE POS=31.0
G4 P1000
G0 F1500 X153.2
G0 F1500 Z16.0
G0 F1500 X150.0
G0 F1500 Z5.0
M400 
G0 F6000 X0 Y187 Z5.0
G0 F6000 X0 Y175 Z5.0
M400 
ACTUATOR_MOVE POS=25.0
G4 P1000
G0 F6000 Z50.0
M400 
ACTUATOR_MOVE POS=13.012
G4 P1000
G0 F6000 Z5.0
ACTUATOR_MOVE POS=12.012
M400 
G0 F6000 X0 Y187 Z5.0
G0 F6000 X138 Y187 Z5.0
G0 F6000 Z20.0
M400 
ACTUATOR_MOVE POS=31.0
G4 P1000
G0 F1500 X141.2
G0 F1500 Z16.0
G0 F1500 X138.0
G0 F1500 Z5.0
M400 
G0 F6000 X0 Y187 Z5.0
G0 F6000 X0 Y175 Z5.0
M400 
ACTUATOR_MOVE POS=25.0
G4 P1000
G0 F6000 Z50.0
M400 
ACTUATOR_MOVE POS=9.044
G4 P1000
G0 F6000 Z5.0
ACTUATOR_MOVE POS=8.044
M400 
G0 F6000 X0 Y169 Z5.0
G0 F6000 X186 Y169 Z5.0
G0 F6000 Z20.0
M400 
ACTUATOR_MOVE POS=31.0
G4 P1000
G0 F1500 X189.2
G0 F1500 Z16.0
G0 F1500 X186.0
G0 F1500 Z5.0
M400 
G0 F6000 X0 Y169 Z5.0
G0 F6000 X0 Y175 Z5.0
M400 
ACTUATOR_MOVE POS=25.0
G4 P1000
G0 F6000 Z50.0
M400 
ACTUATOR_MOVE POS=9.044
G4 P1000
G0 F6000 Z5.0
ACTUATOR_MOVE POS=8.044
M400 
G0 F6000 X0 Y169 Z5.0
G0 F6000 X174 Y169 Z5.0
G0 F6000 Z20.0
M400 
ACTUATOR_MOVE POS=31.0
G4 P1000
G0 F1500 X177.2
G0 F1500 Z16.0
G0 F1500 X174.0
G0 F1500 Z5.0
M400 
G0 F6000 X0 Y169 Z5.0
G0 F6000 X0 Y175 Z5.0
M400 
ACTUATOR_MOVE POS=25.0
G4 P1000
G0 F6000 Z50.0
M400 
ACTUATOR_MOVE POS=9.044
G4 P1000
G0 F6000 Z5.0
ACTUATOR_MOVE POS=8.044
M400 
G0 F6000 X0 Y169 Z5.0
G0 F6000 X162 Y169 Z5.0
G0 F6000 Z20.0
M400 
ACTUATOR_MOVE POS=31.0
G4 P1000
G0 F1500 X165.2
G0 F1500 Z16.0
G0 F1500 X162.0
G0 F1500 Z5.0
M400 
G0 F6000 X0 Y169 Z5.0
G0 F6000 X0 Y175 Z5.0
M400 
ACTUATOR_MOVE POS=25.0
G4 P1000
G0 F6000 Z50.0
M400 
ACTUATOR_MOVE POS=9.044
G4 P1000
G0 F6000 Z5.0
ACTUATOR_MOVE POS=8.044
M400 
G0 F6000 X0 Y169 Z5.0
G0 F6000 X150 Y169 Z5.0
G0 F6000 Z20.0
M400 
ACTUATOR_MOVE POS=31.0
G4 P1000
G0 F1500 X153.2
G0 F1500 Z16.0
G0 F1500 X150.0
G0 F1500 Z5.0
M400 
G0 F6000 X0 Y169 Z5.0
G0 F6000 X0 Y175 Z5.0
M400 
ACTUATOR_MOVE POS=25.0
G4 P1000
G0 F6000 Z50.0
M400 
ACTUATOR_MOVE POS=9.044
G4 P1000
G0 F6000 Z5.0
ACTUATOR_MOVE POS=8.044
M400 
G0 F6000 X0 Y169 Z5.0
G0 F6000 X138 Y169 Z5.0
G0 F6000 Z20.0
M400 
ACTUATOR_MOVE POS=31.0
G4 P1000
G0 F1500 X141.2
G0 F1500 Z16.0
G0 F1500 X138.0
G0 F1500 Z5.0
M400 
G0 F6000 X350 Y0 Z0
