G28 Z
G28 X Y
HOME_ACTUATOR
ACTUATOR_MOVE POS=31.0
G0 F6000 Z5
G0 F6000 X0 Y0 Z5
G0 F6000 X0 Y175 Z5
M400 
ACTUATOR_MOVE POS=25.0
G4 P1000
G0 F6000 Z50
M400 
ACTUATOR_MOVE POS=24.6
G4 P1000
G0 F6000 Z5
ACTUATOR_MOVE POS=23.6
M400 
G0 F6000 X0 Y223 Z5
G0 F6000 X186 Y223 Z5
G0 F6000 Z20
M400 
ACTUATOR_MOVE POS=31.0
G4 P1000
G0 F1500 X189.2
G0 F1500 Z16.0
G0 F1500 X186.0
G0 F1500 Z5.0
M400 
G0 F6000 X0 Y223 Z5.0
G0 F6000 X0 Y175 Z5.0
M400 
ACTUATOR_MOVE POS=25.0
G4 P1000
G0 F6000 Z50.0
M400 
ACTUATOR_MOVE POS=24.3
G4 P1000
G0 F6000 Z5.0
ACTUATOR_MOVE POS=23.3
M400 
G0 F6000 X0 Y223 Z5.0
G0 F6000 X174 Y223 Z5.0
G0 F6000 Z20.0
M400 
ACTUATOR_MOVE POS=31.0
G4 P1000
G0 F1500 X177.2
G0 F1500 Z16.0
G0 F1500 X174.0
G0 F1500 Z5.0
M400 
G0 F6000 X0 Y223 Z5.0
G0 F6000 X0 Y175 Z5.0
M400 
ACTUATOR_MOVE POS=25.0
G4 P1000
G0 F6000 Z50.0
M400 
ACTUATOR_MOVE POS=24.0
G4 P1000
G0 F6000 Z5.0
ACTUATOR_MOVE POS=23.0
M400 
G0 F6000 X0 Y223 Z5.0
G0 F6000 X162 Y223 Z5.0
G0 F6000 Z20.0
M400 
ACTUATOR_MOVE POS=31.0
G4 P1000
G0 F1500 X165.2
G0 F1500 Z16.0
G0 F1500 X162.0
G0 F1500 Z5.0
M400 
G0 F6000 X0 Y223 Z5.0
G0 F6000 X0 Y175 Z5.0
M400 
ACTUATOR_MOVE POS=25.0
G4 P1000
G0 F6000 Z50.0
M400 
ACTUATOR_MOVE POS=23.6
G4 P1000
G0 F6000 Z5.0
ACTUATOR_MOVE POS=22.6
M400 
G0 F6000 X0 Y223 Z5.0
G0 F6000 X150 Y223 Z5.0
G0 F6000 Z20.0
M400 
ACTUATOR_MOVE POS=31.0
G4 P1000
G0 F1500 X153.2
G0 F1500 Z16.0
G0 F1500 X150.0
G0 F1500 Z5.0
M400 
G0 F6000 X0 Y223 Z5.0
G0 F6000 X0 Y175 Z5.0
M400 
ACTUATOR_MOVE POS=25.0
G4 P1000
G0 F6000 Z50.0
M400 
ACTUATOR_MOVE POS=23.2
G4 P1000
G0 F6000 Z5.0
ACTUATOR_MOVE POS=22.2
M400 
G0 F6000 X0 Y223 Z5.0
G0 F6000 X138 Y223 Z5.0
G0 F6000 Z20.0
M400 
ACTUATOR_MOVE POS=31.0
G4 P1000
G0 F1500 X141.2
G0 F1500 Z16.0
G0 F1500 X138.0
G0 F1500 Z5.0
M400 
G0 F6000 X0 Y223 Z5.0
G0 F6000 X0 Y175 Z5.0
M400 
ACTUATOR_MOVE POS=25.0
G4 P1000
G0 F6000 Z50.0
M400 
ACTUATOR_MOVE POS=22.6
G4 P1000
G0 F6000 Z5.0
ACTUATOR_MOVE POS=21.6
M400 
G0 F6000 X0 Y223 Z5.0
G0 F6000 X126 Y223 Z5.0
G0 F6000 Z20.0
M400 
ACTUATOR_MOVE POS=31.0
G4 P1000
G0 F1500 X129.2
G0 F1500 Z16.0
G0 F1500 X125.99999999999999
G0 F1500 Z5.0
M400 
G0 F6000 X0 Y223 Z5.0
G0 F6000 X0 Y175 Z5.0
M400 
ACTUATOR_MOVE POS=25.0
G4 P1000
G0 F6000 Z50.0
M400 
ACTUATOR_MOVE POS=22.0
G4 P1000
G0 F6000 Z5.0
ACTUATOR_MOVE POS=21.0
M400 
G0 F6000 X0 Y223 Z5.0
G0 F6000 X114 Y223 Z5.0
G0 F6000 Z20.0
M400 
ACTUATOR_MOVE POS=31.0
G4 P1000
G0 F1500 X117.2
G0 F1500 Z16.0
G0 F1500 X114.0
G0 F1500 Z5.0
M400 
G0 F6000 X0 Y223 Z5.0
G0 F6000 X0 Y175 Z5.0
M400 
ACTUATOR_MOVE POS=25.0
G4 P1000
G0 F6000 Z50.0
M400 
ACTUATOR_MOVE POS=21.0
G4 P1000
G0 F6000 Z5.0
ACTUATOR_MOVE POS=20.0
M400 
G0 F6000 X0 Y223 Z5.0
G0 F6000 X102 Y223 Z5.0
G0 F6000 Z20.0
M400 
ACTUATOR_MOVE POS=31.0
G4 P1000
G0 F1500 X105.2
G0 F1500 Z16.0
G0 F1500 X102.0
G0 F1500 Z5.0
M400 
G0 F6000 X0 Y223 Z5.0
G0 F6000 X0 Y175 Z5.0
M400 
ACTUATOR_MOVE POS=25.0
G4 P1000
G0 F6000 Z50.0
M400 
ACTUATOR_MOVE POS=20.0
G4 P1000
G0 F6000 Z5.0
ACTUATOR_MOVE POS=19.0
M400 
G0 F6000 X0 Y223 Z5.0
G0 F6000 X90 Y223 Z5.0
G0 F6000 Z20.0
M400 
ACTUATOR_MOVE POS=31.0
G4 P1000
G0 F1500 X93.2
G0 F1500 Z16.0
G0 F1500 X90.0
G0 F1500 Z5.0
M400 
G0 F6000 X0 Y223 Z5.0
G0 F6000 X0 Y175 Z5.0
M400 
ACTUATOR_MOVE POS=25.0
G4 P1000
G0 F6000 Z50.0
M400 
ACTUATOR_MOVE POS=18.0
G4 P1000
G0 F6000 Z5.0
ACTUATOR_MOVE POS=17.0
M400 
G0 F6000 X0 Y223 Z5.0
G0 F6000 X78 Y223 Z5.0
G0 F6000 Z20.0
M400 
ACTUATOR_MOVE POS=31.0
G4 P1000
G0 F1500 X81.2
G0 F1500 Z16.0
G0 F1500 X78.0
G0 F1500 Z5.0
M400 
G0 F6000 X0 Y223 Z5.0
G0 F6000 X0 Y175 Z5.0
M400 
ACTUATOR_MOVE POS=25.0
G4 P1000
G0 F6000 Z50.0
M400 
ACTUATOR_MOVE POS=16.0
G4 P1000
G0 F6000 Z5.0
ACTUATOR_MOVE POS=15.0
M400 
G0 F6000 X0 Y205 Z5.0
G0 F6000 X186 Y205 Z5.0
G0 F6000 Z20.0
M400 
ACTUATOR_MOVE POS=31.0
G4 P1000
G0 F1500 X189.2
G0 F1500 Z16.0
G0 F1500 X186.0
G0 F1500 Z5.0
M400 
G0 F6000 X0 Y205 Z5.0
G0 F6000 X0 Y175 Z5.0
M400 
ACTUATOR_MOVE POS=25.0
G4 P1000
G0 F6000 Z50.0
M400 
ACTUATOR_MOVE POS=13.0
G4 P1000
G0 F6000 Z5.0
ACTUATOR_MOVE POS=12.0
M400 
G0 F6000 X0 Y205 Z5.0
G0 F6000 X174 Y205 Z5.0
G0 F6000 Z20.0
M400 
ACTUATOR_MOVE POS=31.0
G4 P1000
G0 F1500 X177.2
G0 F1500 Z16.0
G0 F1500 X174.0
G0 F1500 Z5.0
M400 
G0 F6000 X0 Y205 Z5.0
G0 F6000 X0 Y175 Z5.0
M400 
ACTUATOR_MOVE POS=25.0
G4 P1000
G0 F6000 Z50.0
M400 
ACTUATOR_MOVE POS=9.0
G4 P1000
G0 F6000 Z5.0
ACTUATOR_MOVE POS=8.0
M400 
G0 F6000 X0 Y205 Z5.0
G0 F6000 X162 Y205 Z5.0
G0 F6000 Z20.0
M400 
ACTUATOR_MOVE POS=31.0
G4 P1000
G0 F1500 X165.2
G0 F1500 Z16.0
G0 F1500 X162.0
G0 F1500 Z5.0
M400 
G0 F6000 X0 Y205 Z5.0
G0 F6000 X0 Y175 Z5.0
M400 
ACTUATOR_MOVE POS=25.0
G4 P1000
G0 F6000 Z50.0
M400 
ACTUATOR_MOVE POS=5.0
G4 P1000
G0 F6000 Z5.0
ACTUATOR_MOVE POS=4.0
M400 
G0 F6000 X0 Y205 Z5.0
G0 F6000 X150 Y205 Z5.0
G0 F6000 Z20.0
M400 
ACTUATOR_MOVE POS=31.0
G4 P1000
G0 F1500 X153.2
G0 F1500 Z16.0
G0 F1500 X150.0
G0 F1500 Z5.0
M400 
G0 F6000 X0 Y205 Z5.0
G0 F6000 X0 Y175 Z5.0
M400 
ACTUATOR_MOVE POS=25.0
G4 P1000
G0 F6000 Z50.0
M400 
ACTUATOR_MOVE POS=1.0
G4 P1000
G0 F6000 Z5.0
ACTUATOR_MOVE POS=0.0
M400 
G0 F6000 X0 Y205 Z5.0
G0 F6000 X138 Y205 Z5.0
G0 F6000 Z20.0
M400 
ACTUATOR_MOVE POS=31.0
G4 P1000
G0 F1500 X141.2
G0 F1500 Z16.0
G0 F1500 X138.0
G0 F1500 Z5.0
M400 
G0 F6000 X350 Y0 Z0
