G28 Z
G28 X Y
HOME_ACTUATOR 
G0 F3000 Z5
G0 F6000 X0 Y175 Z5
M400 
ACTUATOR_MOVE POS=26 
G4 P1000
G0 F6000 Z50
M400 
ACTUATOR_MOVE POS=21
G4 P10000
G0 F6000 Z5
G0 F6000 X78 Y223 Z5
G0 F3000 Z20
M400 
ACTUATOR_MOVE POS=31 
G4 P5000
G0 F3000 Z5
G0 F6000 X0 Y175 Z5
M400 
ACTUATOR_MOVE POS=26 
G4 P1000
G0 F6000 Z50
M400 
ACTUATOR_MOVE POS=21
G4 P10000
G0 F6000 Z5
G0 F6000 X90 Y223 Z5
G0 F3000 Z20
M400 
ACTUATOR_MOVE POS=31 
G4 P5000
G0 F3000 Z5
G0 F6000 X0 Y175 Z5
M400 
ACTUATOR_MOVE POS=26 
G4 P1000
G0 F6000 Z50
M400 
ACTUATOR_MOVE POS=21
G4 P10000
G0 F6000 Z5
G0 F6000 X102 Y223 Z5
G0 F3000 Z20
M400 
ACTUATOR_MOVE POS=31 
G4 P5000
G0 F3000 Z5
G0 F6000 X0 Y175 Z5
M400 
ACTUATOR_MOVE POS=26 
G4 P1000
G0 F6000 Z50
M400 
ACTUATOR_MOVE POS=21
G4 P10000
G0 F6000 Z5
G0 F6000 X114 Y223 Z5
G0 F3000 Z20
M400 
ACTUATOR_MOVE POS=31 
G4 P5000
G0 F3000 Z5
G0 F6000 X0 Y175 Z5
M400 
ACTUATOR_MOVE POS=26 
G4 P1000
G0 F6000 Z50
M400 
ACTUATOR_MOVE POS=21
G4 P10000
G0 F6000 Z5
G0 F6000 X126 Y223 Z5
G0 F3000 Z20
M400 
ACTUATOR_MOVE POS=31 
G4 P5000
G0 F3000 Z5
G0 F6000 X0 Y175 Z5
M400 
ACTUATOR_MOVE POS=26 
G4 P1000
G0 F6000 Z50
M400 
ACTUATOR_MOVE POS=21
G4 P10000
G0 F6000 Z5
G0 F6000 X138 Y223 Z5
G0 F3000 Z20
M400 
ACTUATOR_MOVE POS=31 
G4 P5000
G0 F3000 Z5
G0 F6000 X0 Y175 Z5
M400 
ACTUATOR_MOVE POS=26 
G4 P1000
G0 F6000 Z50
M400 
ACTUATOR_MOVE POS=21
G4 P10000
G0 F6000 Z5
G0 F6000 X150 Y223 Z5
G0 F3000 Z20
M400 
ACTUATOR_MOVE POS=31 
G4 P5000
G0 F3000 Z5
G0 F6000 X0 Y175 Z5
M400 
ACTUATOR_MOVE POS=26 
G4 P1000
G0 F6000 Z50
M400 
ACTUATOR_MOVE POS=21
G4 P10000
G0 F6000 Z5
G0 F6000 X162 Y223 Z5
G0 F3000 Z20
M400 
ACTUATOR_MOVE POS=31 
G4 P5000
G0 F3000 Z5
G0 F6000 X0 Y175 Z5
M400 
ACTUATOR_MOVE POS=26 
G4 P1000
G0 F6000 Z50
M400 
ACTUATOR_MOVE POS=21
G4 P10000
G0 F6000 Z5
G0 F6000 X174 Y223 Z5
G0 F3000 Z20
M400 
ACTUATOR_MOVE POS=31 
G4 P5000
G0 F3000 Z5
G0 F6000 X0 Y175 Z5
M400 
ACTUATOR_MOVE POS=26 
G4 P1000
G0 F6000 Z50
M400 
ACTUATOR_MOVE POS=21
G4 P10000
G0 F6000 Z5
G0 F6000 X186 Y223 Z5
G0 F3000 Z20
M400 
ACTUATOR_MOVE POS=31 
G4 P5000
G0 F3000 Z5
