G28 Z
G28 X Y
HOME_ACTUATOR
ACTUATOR_MOVE POS=30.0
G0 F6000 Z5.0
M400 
LOG_TEMPS TAG=start
G0 F6000 X218 Y0 Z5.0
G0 F6000 X218 Y309 Z5.0
M400 
G0 F600 Z57.5
M400 
G4 P1000
G0 F600 Z5.0
M400 
G0 F6000 X0 Y309 Z5.0
G0 F6000 X0 Y175 Z5.0
M400 
ACTUATOR_MOVE POS=30.0
G4 P500
G0 F6000 Z40.0
M400 
ACTUATOR_MOVE POS=10.0
G4 P1000
ACTUATOR_MOVE POS=30.0
G4 P1000
ACTUATOR_MOVE POS=10.0
G4 P1000
ACTUATOR_MOVE POS=30.0
G4 P1000
ACTUATOR_MOVE POS=10.0
G4 P1000
ACTUATOR_MOVE POS=30.0
G4 P1000
G0 F6000 Z5.0
M400 
LOG_TEMPS TAG=prewet_done
LOG_TEMPS TAG=t0_d0.4
M400 
ACTUATOR_MOVE POS=25.0
G4 P1000
G0 F6000 Z40.0
M400 
ACTUATOR_MOVE POS=24.6
G4 P1000
G0 F6000 Z5.0
ACTUATOR_MOVE POS=23.6
M400 
G0 F6000 X186 Y175 Z5.0
G0 F6000 X186 Y223 Z5.0
G0 F6000 Z45.0
M400 
ACTUATOR_MOVE POS=30.0
G4 P1000
G0 F1500 X189.2 Y223 Z45.0
G0 F1500 Z41.0
G0 F1500 X186 Y223 Z41.0
G0 F6000 Z5.0
M400 
LOG_TEMPS TAG=t1_d0.7
G0 F6000 X0 Y223 Z5.0
G0 F6000 X0 Y175 Z5.0
M400 
ACTUATOR_MOVE POS=25.0
G4 P1000
G0 F6000 Z40.0
M400 
ACTUATOR_MOVE POS=24.3
G4 P1000
G0 F6000 Z5.0
ACTUATOR_MOVE POS=23.3
M400 
G0 F6000 X174 Y175 Z5.0
G0 F6000 X174 Y223 Z5.0
G0 F6000 Z45.0
M400 
ACTUATOR_MOVE POS=30.0
G4 P1000
G0 F1500 X177.2 Y223 Z45.0
G0 F1500 Z41.0
G0 F1500 X174 Y223 Z41.0
G0 F6000 Z5.0
M400 
LOG_TEMPS TAG=t2_d1.0
G0 F6000 X0 Y223 Z5.0
G0 F6000 X0 Y175 Z5.0
M400 
ACTUATOR_MOVE POS=25.0
G4 P1000
G0 F6000 Z40.0
M400 
ACTUATOR_MOVE POS=24.0
G4 P1000
G0 F6000 Z5.0
ACTUATOR_MOVE POS=23.0
M400 
G0 F6000 X162 Y175 Z5.0
G0 F6000 X162 Y223 Z5.0
G0 F6000 Z45.0
M400 
ACTUATOR_MOVE POS=30.0
G4 P1000
G0 F1500 X165.2 Y223 Z45.0
G0 F1500 Z41.0
G0 F1500 X162 Y223 Z41.0
G0 F6000 Z5.0
M400 
LOG_TEMPS TAG=t3_d1.4
G0 F6000 X0 Y223 Z5.0
G0 F6000 X0 Y175 Z5.0
M400 
ACTUATOR_MOVE POS=25.0
G4 P1000
G0 F6000 Z40.0
M400 
ACTUATOR_MOVE POS=23.6
G4 P1000
G0 F6000 Z5.0
ACTUATOR_MOVE POS=22.6
M400 
G0 F6000 X150 Y175 Z5.0
G0 F6000 X150 Y223 Z5.0
G0 F6000 Z45.0
M400 
ACTUATOR_MOVE POS=30.0
G4 P1000
G0 F1500 X153.2 Y223 Z45.0
G0 F1500 Z41.0
G0 F1500 X150 Y223 Z41.0
G0 F6000 Z5.0
M400 
LOG_TEMPS TAG=t4_d1.8
G0 F6000 X0 Y223 Z5.0
G0 F6000 X0 Y175 Z5.0
M400 
ACTUATOR_MOVE POS=25.0
G4 P1000
G0 F6000 Z40.0
M400 
ACTUATOR_MOVE POS=23.2
G4 P1000
G0 F6000 Z5.0
ACTUATOR_MOVE POS=22.2
M400 
G0 F6000 X138 Y175 Z5.0
G0 F6000 X138 Y223 Z5.0
G0 F6000 Z45.0
M400 
ACTUATOR_MOVE POS=30.0
G4 P1000
G0 F1500 X141.2 Y223 Z45.0
G0 F1500 Z41.0
G0 F1500 X138 Y223 Z41.0
G0 F6000 Z5.0
M400 
LOG_TEMPS TAG=t5_d2.4
G0 F6000 X0 Y223 Z5.0
G0 F6000 X0 Y175 Z5.0
M400 
ACTUATOR_MOVE POS=25.0
G4 P1000
G0 F6000 Z40.0
M400 
ACTUATOR_MOVE POS=22.6
G4 P1000
G0 F6000 Z5.0
ACTUATOR_MOVE POS=21.6
M400 
G0 F6000 X126 Y175 Z5.0
G0 F6000 X126 Y223 Z5.0
G0 F6000 Z45.0
M400 
ACTUATOR_MOVE POS=30.0
G4 P1000
G0 F1500 X129.2 Y223 Z45.0
G0 F1500 Z41.0
G0 F1500 X126 Y223 Z41.0
G0 F6000 Z5.0
M400 
LOG_TEMPS TAG=t6_d3.0
G0 F6000 X0 Y223 Z5.0
G0 F6000 X0 Y175 Z5.0
M400 
ACTUATOR_MOVE POS=25.0
G4 P1000
G0 F6000 Z40.0
M400 
ACTUATOR_MOVE POS=22.0
G4 P1000
G0 F6000 Z5.0
ACTUATOR_MOVE POS=21.0
M400 
G0 F6000 X114 Y175 Z5.0
G0 F6000 X114 Y223 Z5.0
G0 F6000 Z45.0
M400 
ACTUATOR_MOVE POS=30.0
G4 P1000
G0 F1500 X117.2 Y223 Z45.0
G0 F1500 Z41.0
G0 F1500 X114 Y223 Z41.0
G0 F6000 Z5.0
M400 
LOG_TEMPS TAG=t7_d4.0
G0 F6000 X0 Y223 Z5.0
G0 F6000 X0 Y175 Z5.0
M400 
ACTUATOR_MOVE POS=25.0
G4 P1000
G0 F6000 Z40.0
M400 
ACTUATOR_MOVE POS=21.0
G4 P1000
G0 F6000 Z5.0
ACTUATOR_MOVE POS=20.0
M400 
G0 F6000 X102 Y175 Z5.0
G0 F6000 X102 Y223 Z5.0
G0 F6000 Z45.0
M400 
ACTUATOR_MOVE POS=30.0
G4 P1000
G0 F1500 X105.2 Y223 Z45.0
G0 F1500 Z41.0
G0 F1500 X102 Y223 Z41.0
G0 F6000 Z5.0
M400 
LOG_TEMPS TAG=t8_d5.0
G0 F6000 X0 Y223 Z5.0
G0 F6000 X0 Y175 Z5.0
M400 
ACTUATOR_MOVE POS=25.0
G4 P1000
G0 F6000 Z40.0
M400 
ACTUATOR_MOVE POS=20.0
G4 P1000
G0 F6000 Z5.0
ACTUATOR_MOVE POS=19.0
M400 
G0 F6000 X90 Y175 Z5.0
G0 F6000 X90 Y223 Z5.0
G0 F6000 Z45.0
M400 
ACTUATOR_MOVE POS=30.0
G4 P1000
G0 F1500 X93.2 Y223 Z45.0
G0 F1500 Z41.0
G0 F1500 X90 Y223 Z41.0
G0 F6000 Z5.0
M400 
LOG_TEMPS TAG=t9_d7.0
G0 F6000 X0 Y223 Z5.0
G0 F6000 X0 Y175 Z5.0
M400 
ACTUATOR_MOVE POS=25.0
G4 P1000
G0 F6000 Z40.0
M400 
ACTUATOR_MOVE POS=18.0
G4 P1000
G0 F6000 Z5.0
ACTUATOR_MOVE POS=17.0
M400 
G0 F6000 X78 Y175 Z5.0
G0 F6000 X78 Y223 Z5.0
G0 F6000 Z45.0
M400 
ACTUATOR_MOVE POS=30.0
G4 P1000
G0 F1500 X81.2 Y223 Z45.0
G0 F1500 Z41.0
G0 F1500 X78 Y223 Z41.0
G0 F6000 Z5.0
M400 
LOG_TEMPS TAG=t10_d9.0
G0 F6000 X0 Y223 Z5.0
G0 F6000 X0 Y175 Z5.0
M400 
ACTUATOR_MOVE POS=25.0
G4 P1000
G0 F6000 Z40.0
M400 
ACTUATOR_MOVE POS=16.0
G4 P1000
G0 F6000 Z5.0
ACTUATOR_MOVE POS=15.0
M400 
G0 F6000 X186 Y175 Z5.0
G0 F6000 X186 Y205 Z5.0
G0 F6000 Z45.0
M400 
ACTUATOR_MOVE POS=30.0
G4 P1000
G0 F1500 X189.2 Y205 Z45.0
G0 F1500 Z41.0
G0 F1500 X186 Y205 Z41.0
G0 F6000 Z5.0
M400 
LOG_TEMPS TAG=t11_d12.0
G0 F6000 X0 Y205 Z5.0
G0 F6000 X0 Y175 Z5.0
M400 
ACTUATOR_MOVE POS=25.0
G4 P1000
G0 F6000 Z40.0
M400 
ACTUATOR_MOVE POS=13.0
G4 P1000
G0 F6000 Z5.0
ACTUATOR_MOVE POS=12.0
M400 
G0 F6000 X174 Y175 Z5.0
G0 F6000 X174 Y205 Z5.0
G0 F6000 Z45.0
M400 
ACTUATOR_MOVE POS=30.0
G4 P1000
G0 F1500 X177.2 Y205 Z45.0
G0 F1500 Z41.0
G0 F1500 X174 Y205 Z41.0
G0 F6000 Z5.0
M400 
LOG_TEMPS TAG=t12_d16.0
G0 F6000 X0 Y205 Z5.0
G0 F6000 X0 Y175 Z5.0
M400 
ACTUATOR_MOVE POS=25.0
G4 P1000
G0 F6000 Z40.0
M400 
ACTUATOR_MOVE POS=9.0
G4 P1000
G0 F6000 Z5.0
ACTUATOR_MOVE POS=8.0
M400 
G0 F6000 X162 Y175 Z5.0
G0 F6000 X162 Y205 Z5.0
G0 F6000 Z45.0
M400 
ACTUATOR_MOVE POS=30.0
G4 P1000
G0 F1500 X165.2 Y205 Z45.0
G0 F1500 Z41.0
G0 F1500 X162 Y205 Z41.0
G0 F6000 Z5.0
M400 
LOG_TEMPS TAG=t13_d20.0
G0 F6000 X0 Y205 Z5.0
G0 F6000 X0 Y175 Z5.0
M400 
ACTUATOR_MOVE POS=25.0
G4 P1000
G0 F6000 Z40.0
M400 
ACTUATOR_MOVE POS=5.0
G4 P1000
G0 F6000 Z5.0
ACTUATOR_MOVE POS=4.0
M400 
G0 F6000 X150 Y175 Z5.0
G0 F6000 X150 Y205 Z5.0
G0 F6000 Z45.0
M400 
ACTUATOR_MOVE POS=30.0
G4 P1000
G0 F1500 X153.2 Y205 Z45.0
G0 F1500 Z41.0
G0 F1500 X150 Y205 Z41.0
G0 F6000 Z5.0
M400 
LOG_TEMPS TAG=t14_d24.0
G0 F6000 X0 Y205 Z5.0
G0 F6000 X0 Y175 Z5.0
M400 
ACTUATOR_MOVE POS=25.0
G4 P1000
G0 F6000 Z40.0
M400 
ACTUATOR_MOVE POS=1.0
G4 P1000
G0 F6000 Z5.0
ACTUATOR_MOVE POS=0.0
M400 
G0 F6000 X138 Y175 Z5.0
G0 F6000 X138 Y205 Z5.0
G0 F6000 Z45.0
M400 
ACTUATOR_MOVE POS=30.0
G4 P1000
G0 F1500 X141.2 Y205 Z45.0
G0 F1500 Z41.0
G0 F1500 X138 Y205 Z41.0
G0 F6000 Z5.0
M400 
LOG_TEMPS TAG=end
G0 F6000 X350 Y205 Z5.0
G0 F6000 X350 Y0 Z5.0
G0 F6000 Z0.0
M400 
