G28 Z
G28 X Y
HOME_ACTUATOR
ACTUATOR_MOVE POS=30.0
G0 F6000 Z5.0
M400 
LOG_TEMPS TAG=start
G0 F6000 X218 Y0 Z5.0
G0 F6000 X218 Y309 Z5.0
M400 
G0 F600 Z57.5
M400 
G4 P1000
G0 F600 Z5.0
M400 
G0 F6000 X0 Y309 Z5.0
G0 F6000 X0 Y175 Z5.0
M400 
ACTUATOR_MOVE POS=30.0
G4 P500
G0 F6000 Z40.0
M400 
ACTUATOR_MOVE POS=10.0
G4 P1000
ACTUATOR_MOVE POS=30.0
G4 P1000
ACTUATOR_MOVE POS=10.0
G4 P1000
ACTUATOR_MOVE POS=30.0
G4 P1000
ACTUATOR_MOVE POS=10.0
G4 P1000
ACTUATOR_MOVE POS=30.0
G4 P1000
G0 F6000 Z5.0
M400 
LOG_TEMPS TAG=prewet_done
LOG_TEMPS TAG=v30_r1
M400 
ACTUATOR_MOVE POS=25.0
G4 P1000
G0 F6000 Z40.0
M400 
ACTUATOR_MOVE POS=23.278
G4 P1000
G0 F6000 Z5.0
ACTUATOR_MOVE POS=22.278
M400 
G0 F6000 X186 Y175 Z5.0
G0 F6000 X186 Y223 Z5.0
G0 F6000 Z45.0
M400 
ACTUATOR_MOVE POS=30.0
G4 P1000
G0 F1500 X189.2 Y223 Z45.0
G0 F1500 Z41.0
G0 F1500 X186 Y223 Z41.0
G0 F6000 Z5.0
M400 
LOG_TEMPS TAG=v30_r2
G0 F6000 X0 Y223 Z5.0
G0 F6000 X0 Y175 Z5.0
M400 
ACTUATOR_MOVE POS=25.0
G4 P1000
G0 F6000 Z40.0
M400 
ACTUATOR_MOVE POS=23.278
G4 P1000
G0 F6000 Z5.0
ACTUATOR_MOVE POS=22.278
M400 
G0 F6000 X174 Y175 Z5.0
G0 F6000 X174 Y223 Z5.0
G0 F6000 Z45.0
M400 
ACTUATOR_MOVE POS=30.0
G4 P1000
G0 F1500 X177.2 Y223 Z45.0
G0 F1500 Z41.0
G0 F1500 X174 Y223 Z41.0
G0 F6000 Z5.0
M400 
LOG_TEMPS TAG=v30_r3
G0 F6000 X0 Y223 Z5.0
G0 F6000 X0 Y175 Z5.0
M400 
ACTUATOR_MOVE POS=25.0
G4 P1000
G0 F6000 Z40.0
M400 
ACTUATOR_MOVE POS=23.278
G4 P1000
G0 F6000 Z5.0
ACTUATOR_MOVE POS=22.278
M400 
G0 F6000 X162 Y175 Z5.0
G0 F6000 X162 Y223 Z5.0
G0 F6000 Z45.0
M400 
ACTUATOR_MOVE POS=30.0
G4 P1000
G0 F1500 X165.2 Y223 Z45.0
G0 F1500 Z41.0
G0 F1500 X162 Y223 Z41.0
G0 F6000 Z5.0
M400 
LOG_TEMPS TAG=v30_r4
G0 F6000 X0 Y223 Z5.0
G0 F6000 X0 Y175 Z5.0
M400 
ACTUATOR_MOVE POS=25.0
G4 P1000
G0 F6000 Z40.0
M400 
ACTUATOR_MOVE POS=23.278
G4 P1000
G0 F6000 Z5.0
ACTUATOR_MOVE POS=22.278
M400 
G0 F6000 X150 Y175 Z5.0
G0 F6000 X150 Y223 Z5.0
G0 F6000 Z45.0
M400 
ACTUATOR_MOVE POS=30.0
G4 P1000
G0 F1500 X153.2 Y223 Z45.0
G0 F1500 Z41.0
G0 F1500 X150 Y223 Z41.0
G0 F6000 Z5.0
M400 
LOG_TEMPS TAG=v30_r5
G0 F6000 X0 Y223 Z5.0
G0 F6000 X0 Y175 Z5.0
M400 
ACTUATOR_MOVE POS=25.0
G4 P1000
G0 F6000 Z40.0
M400 
ACTUATOR_MOVE POS=23.278
G4 P1000
G0 F6000 Z5.0
ACTUATOR_MOVE POS=22.278
M400 
G0 F6000 X138 Y175 Z5.0
G0 F6000 X138 Y223 Z5.0
G0 F6000 Z45.0
M400 
ACTUATOR_MOVE POS=30.0
G4 P1000
G0 F1500 X141.2 Y223 Z45.0
G0 F1500 Z41.0
G0 F1500 X138 Y223 Z41.0
G0 F6000 Z5.0
M400 
LOG_TEMPS TAG=v150_r1
G0 F6000 X0 Y223 Z5.0
G0 F6000 X0 Y175 Z5.0
M400 
ACTUATOR_MOVE POS=25.0
G4 P1000
G0 F6000 Z40.0
M400 
ACTUATOR_MOVE POS=16.877
G4 P1000
G0 F6000 Z5.0
ACTUATOR_MOVE POS=15.877
M400 
G0 F6000 X186 Y175 Z5.0
G0 F6000 X186 Y205 Z5.0
G0 F6000 Z45.0
M400 
ACTUATOR_MOVE POS=30.0
G4 P1000
G0 F1500 X189.2 Y205 Z45.0
G0 F1500 Z41.0
G0 F1500 X186 Y205 Z41.0
G0 F6000 Z5.0
M400 
LOG_TEMPS TAG=v150_r2
G0 F6000 X0 Y205 Z5.0
G0 F6000 X0 Y175 Z5.0
M400 
ACTUATOR_MOVE POS=25.0
G4 P1000
G0 F6000 Z40.0
M400 
ACTUATOR_MOVE POS=16.877
G4 P1000
G0 F6000 Z5.0
ACTUATOR_MOVE POS=15.877
M400 
G0 F6000 X174 Y175 Z5.0
G0 F6000 X174 Y205 Z5.0
G0 F6000 Z45.0
M400 
ACTUATOR_MOVE POS=30.0
G4 P1000
G0 F1500 X177.2 Y205 Z45.0
G0 F1500 Z41.0
G0 F1500 X174 Y205 Z41.0
G0 F6000 Z5.0
M400 
LOG_TEMPS TAG=v150_r3
G0 F6000 X0 Y205 Z5.0
G0 F6000 X0 Y175 Z5.0
M400 
ACTUATOR_MOVE POS=25.0
G4 P1000
G0 F6000 Z40.0
M400 
ACTUATOR_MOVE POS=16.877
G4 P1000
G0 F6000 Z5.0
ACTUATOR_MOVE POS=15.877
M400 
G0 F6000 X162 Y175 Z5.0
G0 F6000 X162 Y205 Z5.0
G0 F6000 Z45.0
M400 
ACTUATOR_MOVE POS=30.0
G4 P1000
G0 F1500 X165.2 Y205 Z45.0
G0 F1500 Z41.0
G0 F1500 X162 Y205 Z41.0
G0 F6000 Z5.0
M400 
LOG_TEMPS TAG=v150_r4
G0 F6000 X0 Y205 Z5.0
G0 F6000 X0 Y175 Z5.0
M400 
ACTUATOR_MOVE POS=25.0
G4 P1000
G0 F6000 Z40.0
M400 
ACTUATOR_MOVE POS=16.877
G4 P1000
G0 F6000 Z5.0
ACTUATOR_MOVE POS=15.877
M400 
G0 F6000 X150 Y175 Z5.0
G0 F6000 X150 Y205 Z5.0
G0 F6000 Z45.0
M400 
ACTUATOR_MOVE POS=30.0
G4 P1000
G0 F1500 X153.2 Y205 Z45.0
G0 F1500 Z41.0
G0 F1500 X150 Y205 Z41.0
G0 F6000 Z5.0
M400 
LOG_TEMPS TAG=v150_r5
G0 F6000 X0 Y205 Z5.0
G0 F6000 X0 Y175 Z5.0
M400 
ACTUATOR_MOVE POS=25.0
G4 P1000
G0 F6000 Z40.0
M400 
ACTUATOR_MOVE POS=16.877
G4 P1000
G0 F6000 Z5.0
ACTUATOR_MOVE POS=15.877
M400 
G0 F6000 X138 Y175 Z5.0
G0 F6000 X138 Y205 Z5.0
G0 F6000 Z45.0
M400 
ACTUATOR_MOVE POS=30.0
G4 P1000
G0 F1500 X141.2 Y205 Z45.0
G0 F1500 Z41.0
G0 F1500 X138 Y205 Z41.0
G0 F6000 Z5.0
M400 
LOG_TEMPS TAG=v225_r1
G0 F6000 X0 Y205 Z5.0
G0 F6000 X0 Y175 Z5.0
M400 
ACTUATOR_MOVE POS=25.0
G4 P1000
G0 F6000 Z40.0
M400 
ACTUATOR_MOVE POS=12.877
G4 P1000
G0 F6000 Z5.0
ACTUATOR_MOVE POS=11.877
M400 
G0 F6000 X186 Y175 Z5.0
G0 F6000 X186 Y187 Z5.0
G0 F6000 Z45.0
M400 
ACTUATOR_MOVE POS=30.0
G4 P1000
G0 F1500 X189.2 Y187 Z45.0
G0 F1500 Z41.0
G0 F1500 X186 Y187 Z41.0
G0 F6000 Z5.0
M400 
LOG_TEMPS TAG=v225_r2
G0 F6000 X0 Y187 Z5.0
G0 F6000 X0 Y175 Z5.0
M400 
ACTUATOR_MOVE POS=25.0
G4 P1000
G0 F6000 Z40.0
M400 
ACTUATOR_MOVE POS=12.877
G4 P1000
G0 F6000 Z5.0
ACTUATOR_MOVE POS=11.877
M400 
G0 F6000 X174 Y175 Z5.0
G0 F6000 X174 Y187 Z5.0
G0 F6000 Z45.0
M400 
ACTUATOR_MOVE POS=30.0
G4 P1000
G0 F1500 X177.2 Y187 Z45.0
G0 F1500 Z41.0
G0 F1500 X174 Y187 Z41.0
G0 F6000 Z5.0
M400 
LOG_TEMPS TAG=v225_r3
G0 F6000 X0 Y187 Z5.0
G0 F6000 X0 Y175 Z5.0
M400 
ACTUATOR_MOVE POS=25.0
G4 P1000
G0 F6000 Z40.0
M400 
ACTUATOR_MOVE POS=12.877
G4 P1000
G0 F6000 Z5.0
ACTUATOR_MOVE POS=11.877
M400 
G0 F6000 X162 Y175 Z5.0
G0 F6000 X162 Y187 Z5.0
G0 F6000 Z45.0
M400 
ACTUATOR_MOVE POS=30.0
G4 P1000
G0 F1500 X165.2 Y187 Z45.0
G0 F1500 Z41.0
G0 F1500 X162 Y187 Z41.0
G0 F6000 Z5.0
M400 
LOG_TEMPS TAG=v225_r4
G0 F6000 X0 Y187 Z5.0
G0 F6000 X0 Y175 Z5.0
M400 
ACTUATOR_MOVE POS=25.0
G4 P1000
G0 F6000 Z40.0
M400 
ACTUATOR_MOVE POS=12.877
G4 P1000
G0 F6000 Z5.0
ACTUATOR_MOVE POS=11.877
M400 
G0 F6000 X150 Y175 Z5.0
G0 F6000 X150 Y187 Z5.0
G0 F6000 Z45.0
M400 
ACTUATOR_MOVE POS=30.0
G4 P1000
G0 F1500 X153.2 Y187 Z45.0
G0 F1500 Z41.0
G0 F1500 X150 Y187 Z41.0
G0 F6000 Z5.0
M400 
LOG_TEMPS TAG=v225_r5
G0 F6000 X0 Y187 Z5.0
G0 F6000 X0 Y175 Z5.0
M400 
ACTUATOR_MOVE POS=25.0
G4 P1000
G0 F6000 Z40.0
M400 
ACTUATOR_MOVE POS=12.877
G4 P1000
G0 F6000 Z5.0
ACTUATOR_MOVE POS=11.877
M400 
G0 F6000 X138 Y175 Z5.0
G0 F6000 X138 Y187 Z5.0
G0 F6000 Z45.0
M400 
ACTUATOR_MOVE POS=30.0
G4 P1000
G0 F1500 X141.2 Y187 Z45.0
G0 F1500 Z41.0
G0 F1500 X138 Y187 Z41.0
G0 F6000 Z5.0
M400 
LOG_TEMPS TAG=v300_r1
G0 F6000 X0 Y187 Z5.0
G0 F6000 X0 Y175 Z5.0
M400 
ACTUATOR_MOVE POS=25.0
G4 P1000
G0 F6000 Z40.0
M400 
ACTUATOR_MOVE POS=8.877
G4 P1000
G0 F6000 Z5.0
ACTUATOR_MOVE POS=7.877
M400 
G0 F6000 X186 Y175 Z5.0
G0 F6000 X186 Y169 Z5.0
G0 F6000 Z45.0
M400 
ACTUATOR_MOVE POS=30.0
G4 P1000
G0 F1500 X189.2 Y169 Z45.0
G0 F1500 Z41.0
G0 F1500 X186 Y169 Z41.0
G0 F6000 Z5.0
M400 
LOG_TEMPS TAG=v300_r2
G0 F6000 X0 Y169 Z5.0
G0 F6000 X0 Y175 Z5.0
M400 
ACTUATOR_MOVE POS=25.0
G4 P1000
G0 F6000 Z40.0
M400 
ACTUATOR_MOVE POS=8.877
G4 P1000
G0 F6000 Z5.0
ACTUATOR_MOVE POS=7.877
M400 
G0 F6000 X174 Y175 Z5.0
G0 F6000 X174 Y169 Z5.0
G0 F6000 Z45.0
M400 
ACTUATOR_MOVE POS=30.0
G4 P1000
G0 F1500 X177.2 Y169 Z45.0
G0 F1500 Z41.0
G0 F1500 X174 Y169 Z41.0
G0 F6000 Z5.0
M400 
LOG_TEMPS TAG=v300_r3
G0 F6000 X0 Y169 Z5.0
G0 F6000 X0 Y175 Z5.0
M400 
ACTUATOR_MOVE POS=25.0
G4 P1000
G0 F6000 Z40.0
M400 
ACTUATOR_MOVE POS=8.877
G4 P1000
G0 F6000 Z5.0
ACTUATOR_MOVE POS=7.877
M400 
G0 F6000 X162 Y175 Z5.0
G0 F6000 X162 Y169 Z5.0
G0 F6000 Z45.0
M400 
ACTUATOR_MOVE POS=30.0
G4 P1000
G0 F1500 X165.2 Y169 Z45.0
G0 F1500 Z41.0
G0 F1500 X162 Y169 Z41.0
G0 F6000 Z5.0
M400 
LOG_TEMPS TAG=v300_r4
G0 F6000 X0 Y169 Z5.0
G0 F6000 X0 Y175 Z5.0
M400 
ACTUATOR_MOVE POS=25.0
G4 P1000
G0 F6000 Z40.0
M400 
ACTUATOR_MOVE POS=8.877
G4 P1000
G0 F6000 Z5.0
ACTUATOR_MOVE POS=7.877
M400 
G0 F6000 X150 Y175 Z5.0
G0 F6000 X150 Y169 Z5.0
G0 F6000 Z45.0
M400 
ACTUATOR_MOVE POS=30.0
G4 P1000
G0 F1500 X153.2 Y169 Z45.0
G0 F1500 Z41.0
G0 F1500 X150 Y169 Z41.0
G0 F6000 Z5.0
M400 
LOG_TEMPS TAG=v300_r5
G0 F6000 X0 Y169 Z5.0
G0 F6000 X0 Y175 Z5.0
M400 
ACTUATOR_MOVE POS=25.0
G4 P1000
G0 F6000 Z40.0
M400 
ACTUATOR_MOVE POS=8.877
G4 P1000
G0 F6000 Z5.0
ACTUATOR_MOVE POS=7.877
M400 
G0 F6000 X138 Y175 Z5.0
G0 F6000 X138 Y169 Z5.0
G0 F6000 Z45.0
M400 
ACTUATOR_MOVE POS=30.0
G4 P1000
G0 F1500 X141.2 Y169 Z45.0
G0 F1500 Z41.0
G0 F1500 X138 Y169 Z41.0
G0 F6000 Z5.0
M400 
LOG_TEMPS TAG=end
G0 F6000 X350 Y169 Z5.0
G0 F6000 X350 Y0 Z5.0
G0 F6000 Z0.0
M400 
