G28 Z
G28 X Y
HOME_ACTUATOR
ACTUATOR_MOVE POS=31.0
G0 F6000 X0 Y0 Z0
G0 F6000 X0 Y175 Z0
M400 
ACTUATOR_MOVE POS=25.0
G4 P1000
G0 F6000 Z45
M400 
ACTUATOR_MOVE POS=5.0
G4 P1000
G0 F6000 Z0
ACTUATOR_MOVE POS=4.0
M400 
ACTUATOR_MOVE POS=31.0
ACTUATOR_MOVE POS=25.0
G4 P1000
G0 F6000 Z45
M400 
ACTUATOR_MOVE POS=5.0
G4 P1000
G0 F6000 Z0
ACTUATOR_MOVE POS=4.0
M400 
ACTUATOR_MOVE POS=31.0
ACTUATOR_MOVE POS=25.0
G4 P1000
G0 F6000 Z45
M400 
ACTUATOR_MOVE POS=5.0
G4 P1000
G0 F6000 Z0
ACTUATOR_MOVE POS=4.0
M400 
ACTUATOR_MOVE POS=31.0
