G28 Z
G28 X Y
G0 F6000 X-84 Y365 Z0
G0 F3000 Z-20
M400 
G4 P10000
G0 F3000 Z0
G0 F6000 X-220 Y365 Z0
G0 F3000 Z-20
M400 
G4 P10000
G0 F3000 Z0
G0 F6000 X-355 Y365 Z0
G0 F3000 Z-20
M400 
G4 P10000
G0 F3000 Z0
G0 F6000 X-84 Y272 Z0
G0 F3000 Z-20
M400 
G4 P10000
G0 F3000 Z0
G0 F6000 X-220 Y272 Z0
G0 F3000 Z-20
M400 
G4 P10000
G0 F3000 Z0
G0 F6000 X-355 Y272 Z0
G0 F3000 Z-20
M400 
G4 P10000
G0 F3000 Z0
G0 F6000 X-84 Y178.5 Z0
G0 F3000 Z-20
M400 
G4 P10000
G0 F3000 Z0
G0 F6000 X-220 Y178.5 Z0
G0 F3000 Z-20
M400 
G4 P10000
G0 F3000 Z0
G0 F6000 X-355 Y178.5 Z0
G0 F3000 Z-20
M400 
G4 P10000
G0 F3000 Z0
